CCSDS_OEM_VERS = 1.0
CREATION_DATE  = 2017-05-11T11:08:05
ORIGINATOR     = GMAT USER

META_START
OBJECT_NAME          = MOPSSat_alt_35785_km_RAAN_0_156
OBJECT_ID            = SatId
CENTER_NAME          = Earth
REF_FRAME            = EME2000
TIME_SYSTEM          = UTC
START_TIME           = 2017-01-01T00:00:00.000
USEABLE_START_TIME   = 2017-01-01T00:00:00.000
USEABLE_STOP_TIME    = 2017-01-02T00:00:00.000
STOP_TIME            = 2017-01-02T00:00:00.000
INTERPOLATION        = Lagrange
INTERPOLATION_DEGREE = 7 
META_STOP


                                                                                   

2017-01-01T21:14:10.000  -4.494909414715913e+03  -3.305636766429758e+04  -5.827119963560506e+03   3.519045546756764e+00   1.284545791571376e+00   2.265289122919434e-01
2017-01-01T21:14:20.000  -4.459716657903500e+03  -3.304350523694405e+04  -5.824851682818294e+03   3.519505463099937e+00   1.287940388914157e+00   2.271273612813836e-01
2017-01-01T21:14:30.000  -4.424519316471192e+03  -3.303060884375944e+04  -5.822577414085456e+03   3.519962476857267e+00   1.291338961269648e+00   2.277265110310352e-01
2017-01-01T21:14:40.000  -4.389317419120726e+03  -3.301767844483715e+04  -5.820297150326798e+03   3.520416577839038e+00   1.294741512763015e+00   2.283263622681083e-01
2017-01-01T21:14:50.000  -4.354110995012333e+03  -3.300471400035697e+04  -5.818010884522359e+03   3.520867755817717e+00   1.298148047479778e+00   2.289269157128232e-01
2017-01-01T21:15:00.000  -4.318900073427227e+03  -3.299171547046555e+04  -5.815718609646351e+03   3.521316000532634e+00   1.301558569497879e+00   2.295281720840635e-01
2017-01-01T21:15:10.000  -4.283684683767692e+03  -3.297868281527472e+04  -5.813420318666825e+03   3.521761301689726e+00   1.304973082887808e+00   2.301301320993989e-01
2017-01-01T21:15:20.000  -4.248464855896618e+03  -3.296561599499120e+04  -5.811116004568587e+03   3.522203648957550e+00   1.308391591679162e+00   2.307327964691895e-01
2017-01-01T21:15:30.000  -4.213240619681173e+03  -3.295251496974373e+04  -5.808805660322687e+03   3.522643031972585e+00   1.311814099905277e+00   2.313361659044541e-01
2017-01-01T21:15:40.000  -4.178012005176392e+03  -3.293937969965194e+04  -5.806489278898573e+03   3.523079440336925e+00   1.315240611585253e+00   2.319402411137009e-01
2017-01-01T21:15:50.000  -4.142779041817192e+03  -3.292621014452526e+04  -5.804166853210979e+03   3.523512863628202e+00   1.318671130802471e+00   2.325450228167710e-01
2017-01-01T21:16:00.000  -4.107541759229034e+03  -3.291300626416447e+04  -5.801838376173144e+03   3.523943291389416e+00   1.322105661625733e+00   2.331505117309341e-01
2017-01-01T21:16:10.000  -4.072300187019116e+03  -3.289976801828450e+04  -5.799503840683143e+03   3.524370713131471e+00   1.325544208129467e+00   2.337567085744518e-01
2017-01-01T21:16:20.000  -4.037054355338945e+03  -3.288649536672180e+04  -5.797163239660498e+03   3.524795118325913e+00   1.328986774339183e+00   2.343636140569605e-01
2017-01-01T21:16:30.000  -4.001804294420788e+03  -3.287318826926386e+04  -5.794816566016098e+03   3.525216496410808e+00   1.332433364276237e+00   2.349712288873651e-01
2017-01-01T21:16:40.000  -3.966550034684953e+03  -3.285984668568855e+04  -5.792463812659131e+03   3.525634836789254e+00   1.335883981947415e+00   2.355795537720004e-01
2017-01-01T21:16:50.000  -3.931291606698931e+03  -3.284647057575088e+04  -5.790104972494761e+03   3.526050128829991e+00   1.339338631348609e+00   2.361885894152806e-01
2017-01-01T21:17:00.000  -3.896029041157761e+03  -3.283305989917368e+04  -5.787740038422484e+03   3.526462361867382e+00   1.342797316466880e+00   2.367983365200626e-01
2017-01-01T21:17:10.000  -3.860762368842185e+03  -3.281961461563166e+04  -5.785369003333308e+03   3.526871525201801e+00   1.346260041284504e+00   2.374087957883592e-01
2017-01-01T21:17:20.000  -3.825491620599467e+03  -3.280613468474594e+04  -5.782991860108791e+03   3.527277608099949e+00   1.349726809780575e+00   2.380199679216219e-01
2017-01-01T21:17:30.000  -3.790216827301953e+03  -3.279262006606589e+04  -5.780608601617841e+03   3.527680599795014e+00   1.353197625935279e+00   2.386318536214941e-01
2017-01-01T21:17:40.000  -3.754938019954670e+03  -3.277907071911114e+04  -5.778219220724128e+03   3.528080489485447e+00   1.356672493719133e+00   2.392444535879142e-01
2017-01-01T21:17:50.000  -3.719655229230450e+03  -3.276548660318978e+04  -5.775823710254018e+03   3.528477266339824e+00   1.360151417139075e+00   2.398577685272408e-01
2017-01-01T21:18:00.000  -3.684368486033956e+03  -3.275186767761815e+04  -5.773422063035337e+03   3.528870919490664e+00   1.363634400182485e+00   2.404717991423847e-01
2017-01-01T21:18:10.000  -3.649077821289030e+03  -3.273821390163824e+04  -5.771014271882794e+03   3.529261438036671e+00   1.367121446838169e+00   2.410865461365069e-01
2017-01-01T21:18:20.000  -3.613783266764140e+03  -3.272452523473666e+04  -5.768600329654252e+03   3.529648811033476e+00   1.370612561014755e+00   2.417020101986331e-01
2017-01-01T21:18:30.000  -3.578484854247658e+03  -3.271080163632618e+04  -5.766180229194539e+03   3.530033027502717e+00   1.374107746622060e+00   2.423181920179984e-01
2017-01-01T21:18:40.000  -3.543182615761139e+03  -3.269704306582759e+04  -5.763753963349914e+03   3.530414076429551e+00   1.377607007550002e+00   2.429350922803293e-01
2017-01-01T21:18:50.000  -3.507876582996418e+03  -3.268324948245408e+04  -5.761321524930017e+03   3.530791946768991e+00   1.381110347723914e+00   2.435527116775951e-01
2017-01-01T21:19:00.000  -3.472566787780704e+03  -3.266942084538875e+04  -5.758882906739197e+03   3.531166627440441e+00   1.384617771058787e+00   2.441710508999414e-01
2017-01-01T21:19:10.000  -3.437253261969781e+03  -3.265555711374385e+04  -5.756438101569296e+03   3.531538107328832e+00   1.388129281469682e+00   2.447901106375257e-01
2017-01-01T21:19:20.000  -3.401936037489679e+03  -3.264165824657467e+04  -5.753987102202128e+03   3.531906375283885e+00   1.391644882867783e+00   2.454098915798217e-01
2017-01-01T21:19:30.000  -3.366615146357001e+03  -3.262772420288939e+04  -5.751529901411192e+03   3.532271420119952e+00   1.395164579158101e+00   2.460303944152140e-01
2017-01-01T21:19:40.000  -3.331290620721552e+03  -3.261375494166577e+04  -5.749066491964635e+03   3.532633230615505e+00   1.398688374235159e+00   2.466516198302376e-01
2017-01-01T21:19:50.000  -3.295962492886250e+03  -3.259975042185702e+04  -5.746596866626264e+03   3.532991795512634e+00   1.402216271981153e+00   2.472735685092543e-01
2017-01-01T21:20:00.000  -3.260630795349336e+03  -3.258571060241090e+04  -5.744121018158939e+03   3.533347103516760e+00   1.405748276261402e+00   2.478962411336495e-01
2017-01-01T21:20:10.000  -3.225295560697293e+03  -3.257163544222608e+04  -5.741638939316857e+03   3.533699143297519e+00   1.409284390935091e+00   2.485196383837277e-01
2017-01-01T21:20:20.000  -3.189956822071147e+03  -3.255752490034112e+04  -5.739150622878898e+03   3.534047903484341e+00   1.412824619808171e+00   2.491437609304062e-01
2017-01-01T21:20:30.000  -3.154614612602275e+03  -3.254337893570653e+04  -5.736656061608403e+03   3.534393372671671e+00   1.416368966690101e+00   2.497686094452225e-01
2017-01-01T21:20:40.000  -3.119268965622670e+03  -3.252919750726915e+04  -5.734155248268076e+03   3.534735539416843e+00   1.419917435372654e+00   2.503941845965936e-01
2017-01-01T21:20:50.000  -3.083919913852310e+03  -3.251498057364657e+04  -5.731648175562563e+03   3.535074392247905e+00   1.423470029711373e+00   2.510204870641790e-01
2017-01-01T21:21:00.000  -3.048567490210420e+03  -3.250072809345177e+04  -5.729134836195698e+03   3.535409919655592e+00   1.427026753544129e+00   2.516475175245229e-01
2017-01-01T21:21:10.000  -3.013211727632175e+03  -3.248644002522041e+04  -5.726615222857685e+03   3.535742110095089e+00   1.430587610709371e+00   2.522752766542694e-01
2017-01-01T21:21:20.000  -2.977852659526492e+03  -3.247211632759102e+04  -5.724089328256858e+03   3.536070951981165e+00   1.434152605000457e+00   2.529037651221142e-01
2017-01-01T21:21:30.000  -2.942490319436921e+03  -3.245775695917268e+04  -5.721557145096375e+03   3.536396433691738e+00   1.437721740199203e+00   2.535329835947169e-01
2017-01-01T21:21:40.000  -2.907124741041825e+03  -3.244336187854323e+04  -5.719018666073885e+03   3.536718543567598e+00   1.441295020075994e+00   2.541629327367211e-01
2017-01-01T21:21:50.000  -2.871755958495234e+03  -3.242893104439252e+04  -5.716473883906788e+03   3.537037269909653e+00   1.444872448354764e+00   2.547936132045816e-01
2017-01-01T21:22:00.000  -2.836384005968778e+03  -3.241446441533153e+04  -5.713922791298576e+03   3.537352600982580e+00   1.448454028759682e+00   2.554250256547928e-01
2017-01-01T21:22:10.000  -2.801008917832606e+03  -3.239996194996707e+04  -5.711365380952016e+03   3.537664525013189e+00   1.452039764996669e+00   2.560571707406325e-01
2017-01-01T21:22:20.000  -2.765630727857472e+03  -3.238542360657495e+04  -5.708801645511498e+03   3.537973030197382e+00   1.455629660834169e+00   2.566900491264007e-01
2017-01-01T21:22:30.000  -2.730249470013362e+03  -3.237084934342664e+04  -5.706231577620661e+03   3.538278104692969e+00   1.459223720022193e+00   2.573236614731457e-01
2017-01-01T21:22:40.000  -2.694865178289448e+03  -3.235623911871625e+04  -5.703655169909491e+03   3.538579736621230e+00   1.462821946310389e+00   2.579580084418527e-01
2017-01-01T21:22:50.000  -2.659477887152312e+03  -3.234159289074487e+04  -5.701072415026850e+03   3.538877914062430e+00   1.466424343401910e+00   2.585930906853086e-01
2017-01-01T21:23:00.000  -2.624087631206519e+03  -3.232691061778526e+04  -5.698483305616609e+03   3.539172625059110e+00   1.470030914987298e+00   2.592289088540768e-01
2017-01-01T21:23:10.000  -2.588694445194834e+03  -3.231219225808006e+04  -5.695887834317319e+03   3.539463857615801e+00   1.473641664744591e+00   2.598654635965157e-01
